CCSDS_OMM_VERS = 2.0
CREATION_DATE  = 
ORIGINATOR     = 

OBJECT_NAME    = SL-16 R/B
OBJECT_ID      = 1998-043G
CENTER_NAME    = EARTH
REF_FRAME      = TEME
TIME_SYSTEM    = UTC
MEAN_ELEMENT_THEORY = SGP/SGP4

EPOCH          = 2025-12-15T07:47:00.294144
MEAN_MOTION    = 14.26026317
ECCENTRICITY   = .00087902
INCLINATION    = 98.8129
RA_OF_ASC_NODE = 297.1569
ARG_OF_PERICENTER = 258.3300
MEAN_ANOMALY   = 101.6893

EPHEMERIS_TYPE = 0
CLASSIFICATION_TYPE = U
NORAD_CAT_ID   = 25400
ELEMENT_SET_NO = 999
REV_AT_EPOCH   = 42696
BSTAR          = .51034716E-4
MEAN_MOTION_DOT = .77E-6
MEAN_MOTION_DDOT = 0

CCSDS_OMM_VERS = 2.0
CREATION_DATE  = 
ORIGINATOR     = 

OBJECT_NAME    = SL-16 R/B
OBJECT_ID      = 1998-045B
CENTER_NAME    = EARTH
REF_FRAME      = TEME
TIME_SYSTEM    = UTC
MEAN_ELEMENT_THEORY = SGP/SGP4

EPOCH          = 2025-12-15T07:22:50.509920
MEAN_MOTION    = 14.16174554
ECCENTRICITY   = .00067816
INCLINATION    = 71.0116
RA_OF_ASC_NODE = 359.0267
ARG_OF_PERICENTER = 173.3115
MEAN_ANOMALY   = 186.8100

EPHEMERIS_TYPE = 0
CLASSIFICATION_TYPE = U
NORAD_CAT_ID   = 25407
ELEMENT_SET_NO = 999
REV_AT_EPOCH   = 41515
BSTAR          = -.37672299E-4
MEAN_MOTION_DOT = -.122E-5
MEAN_MOTION_DDOT = 0

CCSDS_OMM_VERS = 2.0
CREATION_DATE  = 
ORIGINATOR     = 

OBJECT_NAME    = ISS (ZARYA)
OBJECT_ID      = 1998-067A
CENTER_NAME    = EARTH
REF_FRAME      = TEME
TIME_SYSTEM    = UTC
MEAN_ELEMENT_THEORY = SGP/SGP4

EPOCH          = 2025-12-15T05:59:35.690496
MEAN_MOTION    = 15.49601155
ECCENTRICITY   = .00031934
INCLINATION    = 51.6306
RA_OF_ASC_NODE = 130.0501
ARG_OF_PERICENTER = 251.9008
MEAN_ANOMALY   = 108.1633

EPHEMERIS_TYPE = 0
CLASSIFICATION_TYPE = U
NORAD_CAT_ID   = 25544
ELEMENT_SET_NO = 999
REV_AT_EPOCH   = 54324
BSTAR          = .13467464E-3
MEAN_MOTION_DOT = .7132E-4
MEAN_MOTION_DDOT = 0

CCSDS_OMM_VERS = 2.0
CREATION_DATE  = 
ORIGINATOR     = 

OBJECT_NAME    = CZ-4B R/B
OBJECT_ID      = 1999-025C
CENTER_NAME    = EARTH
REF_FRAME      = TEME
TIME_SYSTEM    = UTC
MEAN_ELEMENT_THEORY = SGP/SGP4

EPOCH          = 2025-12-15T08:23:20.688864
MEAN_MOTION    = 14.18244228
ECCENTRICITY   = .00363916
INCLINATION    = 98.6766
RA_OF_ASC_NODE = 30.5712
ARG_OF_PERICENTER = 226.3292
MEAN_ANOMALY   = 143.9093

EPHEMERIS_TYPE = 0
CLASSIFICATION_TYPE = U
NORAD_CAT_ID   = 25732
ELEMENT_SET_NO = 999
REV_AT_EPOCH   = 37621
BSTAR          = .57667719E-4
MEAN_MOTION_DOT = .76E-6
MEAN_MOTION_DDOT = 0

CCSDS_OMM_VERS = 2.0
CREATION_DATE  = 
ORIGINATOR     = 

OBJECT_NAME    = OKEAN-O
OBJECT_ID      = 1999-039A
CENTER_NAME    = EARTH
REF_FRAME      = TEME
TIME_SYSTEM    = UTC
MEAN_ELEMENT_THEORY = SGP/SGP4

EPOCH          = 2025-12-15T03:44:05.104032
MEAN_MOTION    = 14.80165311
ECCENTRICITY   = .00008574
INCLINATION    = 97.9602
RA_OF_ASC_NODE = 44.8364
ARG_OF_PERICENTER = 103.7037
MEAN_ANOMALY   = 256.4270

EPHEMERIS_TYPE = 0
CLASSIFICATION_TYPE = U
NORAD_CAT_ID   = 25860
ELEMENT_SET_NO = 999
REV_AT_EPOCH   = 42188
BSTAR          = .11091644E-3
MEAN_MOTION_DOT = .79E-5
MEAN_MOTION_DDOT = 0

CCSDS_OMM_VERS = 2.0
CREATION_DATE  = 
ORIGINATOR     = 

OBJECT_NAME    = SL-16 R/B
OBJECT_ID      = 1999-039B
CENTER_NAME    = EARTH
REF_FRAME      = TEME
TIME_SYSTEM    = UTC
MEAN_ELEMENT_THEORY = SGP/SGP4

EPOCH          = 2025-12-15T03:33:39.856608
MEAN_MOTION    = 14.81589797
ECCENTRICITY   = .0015114
INCLINATION    = 98.0125
RA_OF_ASC_NODE = 43.2998
ARG_OF_PERICENTER = 166.9043
MEAN_ANOMALY   = 193.2565

EPHEMERIS_TYPE = 0
CLASSIFICATION_TYPE = U
NORAD_CAT_ID   = 25861
ELEMENT_SET_NO = 999
REV_AT_EPOCH   = 42434
BSTAR          = .88721175E-4
MEAN_MOTION_DOT = .644E-5
MEAN_MOTION_DDOT = 0

CCSDS_OMM_VERS = 2.0
CREATION_DATE  = 
ORIGINATOR     = 

OBJECT_NAME    = DELTA 2 R/B
OBJECT_ID      = 1999-041E
CENTER_NAME    = EARTH
REF_FRAME      = TEME
TIME_SYSTEM    = UTC
MEAN_ELEMENT_THEORY = SGP/SGP4

EPOCH          = 2025-12-15T06:18:27.495072
MEAN_MOTION    = 14.11408727
ECCENTRICITY   = .05046547
INCLINATION    = 51.7611
RA_OF_ASC_NODE = 278.3738
ARG_OF_PERICENTER = 99.2038
MEAN_ANOMALY   = 266.6314

EPHEMERIS_TYPE = 0
CLASSIFICATION_TYPE = U
NORAD_CAT_ID   = 25876
ELEMENT_SET_NO = 999
REV_AT_EPOCH   = 35110
BSTAR          = .22397626E-3
MEAN_MOTION_DOT = .1144E-4
MEAN_MOTION_DDOT = 0

CCSDS_OMM_VERS = 2.0
CREATION_DATE  = 
ORIGINATOR     = 

OBJECT_NAME    = HELIOS 1B
OBJECT_ID      = 1999-064A
CENTER_NAME    = EARTH
REF_FRAME      = TEME
TIME_SYSTEM    = UTC
MEAN_ELEMENT_THEORY = SGP/SGP4

EPOCH          = 2025-12-15T03:47:47.459616
MEAN_MOTION    = 14.87293711
ECCENTRICITY   = .00015819
INCLINATION    = 98.1757
RA_OF_ASC_NODE = 243.8955
ARG_OF_PERICENTER = 41.6030
MEAN_ANOMALY   = 318.5305

EPHEMERIS_TYPE = 0
CLASSIFICATION_TYPE = U
NORAD_CAT_ID   = 25977
ELEMENT_SET_NO = 999
REV_AT_EPOCH   = 67269
BSTAR          = .156537E-3
MEAN_MOTION_DOT = .1353E-4
MEAN_MOTION_DDOT = 0

CCSDS_OMM_VERS = 2.0
CREATION_DATE  = 
ORIGINATOR     = 

OBJECT_NAME    = TERRA
OBJECT_ID      = 1999-068A
CENTER_NAME    = EARTH
REF_FRAME      = TEME
TIME_SYSTEM    = UTC
MEAN_ELEMENT_THEORY = SGP/SGP4

EPOCH          = 2025-12-15T08:01:42.322368
MEAN_MOTION    = 14.60904832
ECCENTRICITY   = .00036002
INCLINATION    = 97.9747
RA_OF_ASC_NODE = 40.9238
ARG_OF_PERICENTER = 89.4268
MEAN_ANOMALY   = 319.6206

EPHEMERIS_TYPE = 0
CLASSIFICATION_TYPE = U
NORAD_CAT_ID   = 25994
ELEMENT_SET_NO = 999
REV_AT_EPOCH   = 38276
BSTAR          = .11377192E-3
MEAN_MOTION_DOT = .512E-5
MEAN_MOTION_DDOT = 0

CCSDS_OMM_VERS = 2.0
CREATION_DATE  = 
ORIGINATOR     = 

OBJECT_NAME    = SL-16 R/B
OBJECT_ID      = 2000-006B
CENTER_NAME    = EARTH
REF_FRAME      = TEME
TIME_SYSTEM    = UTC
MEAN_ELEMENT_THEORY = SGP/SGP4

EPOCH          = 2025-12-15T05:31:44.442336
MEAN_MOTION    = 14.15809988
ECCENTRICITY   = .00185563
INCLINATION    = 71.0028
RA_OF_ASC_NODE = 275.4206
ARG_OF_PERICENTER = 305.2405
MEAN_ANOMALY   = 54.6981

EPHEMERIS_TYPE = 0
CLASSIFICATION_TYPE = U
NORAD_CAT_ID   = 26070
ELEMENT_SET_NO = 999
REV_AT_EPOCH   = 33660
BSTAR          = -.86868147E-4
MEAN_MOTION_DOT = -.219E-5
MEAN_MOTION_DDOT = 0

CCSDS_OMM_VERS = 2.0
CREATION_DATE  = 
ORIGINATOR     = 

OBJECT_NAME    = TITAN 4B R/B
OBJECT_ID      = 2000-047B
CENTER_NAME    = EARTH
REF_FRAME      = TEME
TIME_SYSTEM    = UTC
MEAN_ELEMENT_THEORY = SGP/SGP4

EPOCH          = 2025-12-15T07:52:54.477120
MEAN_MOTION    = 15.08802283
ECCENTRICITY   = .00387397
INCLINATION    = 67.9895
RA_OF_ASC_NODE = 277.5845
ARG_OF_PERICENTER = 141.3550
MEAN_ANOMALY   = 219.0383

EPHEMERIS_TYPE = 0
CLASSIFICATION_TYPE = U
NORAD_CAT_ID   = 26474
ELEMENT_SET_NO = 999
REV_AT_EPOCH   = 38018
BSTAR          = .20971533E-3
MEAN_MOTION_DOT = .3227E-4
MEAN_MOTION_DDOT = 0

CCSDS_OMM_VERS = 2.0
CREATION_DATE  = 
ORIGINATOR     = 

OBJECT_NAME    = ENVISAT
OBJECT_ID      = 2002-009A
CENTER_NAME    = EARTH
REF_FRAME      = TEME
TIME_SYSTEM    = UTC
MEAN_ELEMENT_THEORY = SGP/SGP4

EPOCH          = 2025-12-15T08:38:26.312064
MEAN_MOTION    = 14.39000276
ECCENTRICITY   = .00011381
INCLINATION    = 98.3603
RA_OF_ASC_NODE = 300.0342
ARG_OF_PERICENTER = 83.8198
MEAN_ANOMALY   = 85.3606

EPHEMERIS_TYPE = 0
CLASSIFICATION_TYPE = U
NORAD_CAT_ID   = 27386
ELEMENT_SET_NO = 999
REV_AT_EPOCH   = 24704
BSTAR          = .5943771E-4
MEAN_MOTION_DOT = .141E-5
MEAN_MOTION_DDOT = 0

