SL-16 R/B               
1 25400U 98043G   25349.32430896  .00000077  00000+0  51035-4 0  9994
2 25400  98.8129 297.1569 0008790 258.3300 101.6893 14.26026317426961
SL-16 R/B               
1 25407U 98045B   25349.30752905 -.00000122  00000+0 -37672-4 0  9993
2 25407  71.0116 359.0267 0006781 173.3115 186.8100 14.16174554415159
ISS (ZARYA)             
1 25544U 98067A   25349.24971864  .00007132  00000+0  13467-3 0  9990
2 25544  51.6306 130.0501 0003193 251.9008 108.1633 15.49601155543241
CZ-4B R/B               
1 25732U 99025C   25349.34954501  .00000076  00000+0  57668-4 0  9996
2 25732  98.6766  30.5712 0036391 226.3292 143.9093 14.18244228376213
OKEAN-O                 
1 25860U 99039A   25349.15561463  .00000790  00000+0  11092-3 0  9996
2 25860  97.9602  44.8364 0000857 103.7037 256.4270 14.80165311421885
SL-16 R/B               
1 25861U 99039B   25349.14837797  .00000644  00000+0  88721-4 0  9994
2 25861  98.0125  43.2998 0015114 166.9043 193.2565 14.81589797424342
DELTA 2 R/B             
1 25876U 99041E   25349.26281823  .00001144  00000+0  22398-3 0  9992
2 25876  51.7611 278.3738 0504654  99.2038 266.6314 14.11408727351107
HELIOS 1B               
1 25977U 99064A   25349.15818819  .00001353  00000+0  15654-3 0  9997
2 25977  98.1757 243.8955 0001581  41.6030 318.5305 14.87293711672692
TERRA                   
1 25994U 99068A   25349.33451762  .00000512  00000+0  11377-3 0  9994
2 25994  97.9747  40.9238 0003600  89.4268 319.6206 14.60904832382766
SL-16 R/B               
1 26070U 00006B   25349.23037549 -.00000219  00000+0 -86868-4 0  9990
2 26070  71.0028 275.4206 0018556 305.2405  54.6981 14.15809988336609
TITAN 4B R/B            
1 26474U 00047B   25349.32840830  .00003227  00000+0  20972-3 0  9991
2 26474  67.9895 277.5845 0038739 141.3550 219.0383 15.08802283380189
ENVISAT                 
1 27386U 02009A   25349.36002676  .00000141  00000+0  59438-4 0  9998
2 27386  98.3603 300.0342 0001138  83.8198  85.3606 14.39000276247046
